{
  "id": 85680287,
  "type": "Feature",
  "properties": {
    "edtf:cessation": "",
    "edtf:inception": "",
    "geom:area": 0.00033657417272853825,
    "geom:area_square_m": 3928227.181888,
    "geom:bbox": "166.619395,19.275580,166.652354,19.305732",
    "geom:latitude": 19.287155664812637,
    "geom:longitude": 166.6415390676784,
    "gn:population": 150,
    "iso:country": "UM",
    "label:eng_x_preferred_longname": [
      "Wake Atoll Unincorporated Territory"
    ],
    "label:eng_x_preferred_placetype": [
      "unincorporated territory"
    ],
    "label:eng_x_preferred_shortcode": [
      "WQ"
    ],
    "lbl:latitude": 19.285663,
    "lbl:longitude": 166.644535,
    "lbl:min_zoom": 8,
    "mps:latitude": 19.285663,
    "mps:longitude": 166.644535,
    "mz:hierarchy_label": 1,
    "mz:is_current": 1,
    "mz:max_zoom": 11,
    "mz:min_zoom": 11,
    "name:bul_x_preferred": [
      "Уейк"
    ],
    "name:cat_x_preferred": [
      "Illes Wake"
    ],
    "name:ces_x_preferred": [
      "Wake"
    ],
    "name:dan_x_preferred": [
      "Wake Island"
    ],
    "name:deu_x_preferred": [
      "Wakeinsel"
    ],
    "name:deu_x_variant": [
      "Wake"
    ],
    "name:eng_x_preferred": [
      "Wake Island"
    ],
    "name:epo_x_preferred": [
      "Vejkinsulo"
    ],
    "name:est_x_preferred": [
      "Wake"
    ],
    "name:fin_x_preferred": [
      "Wakensaari"
    ],
    "name:fra_x_colloquial": [
      "Ile Wake"
    ],
    "name:fra_x_preferred": [
      "Île Wake"
    ],
    "name:frp_x_preferred": [
      "Ila Vake"
    ],
    "name:glg_x_preferred": [
      "Illa Wake"
    ],
    "name:hbs_x_preferred": [
      "Otok Wake"
    ],
    "name:heb_x_preferred": [
      "וייק"
    ],
    "name:hun_x_preferred": [
      "Wake-sziget"
    ],
    "name:ind_x_preferred": [
      "Pulau Wake"
    ],
    "name:isl_x_preferred": [
      "Varsímaeyja"
    ],
    "name:ita_x_preferred": [
      "Isola di Wake"
    ],
    "name:jpn_x_preferred": [
      "ウェーク島"
    ],
    "name:kor_x_preferred": [
      "웨이크 섬"
    ],
    "name:lav_x_preferred": [
      "Veika sala"
    ],
    "name:nld_x_preferred": [
      "Wake-eiland"
    ],
    "name:nor_x_preferred": [
      "Wake Island"
    ],
    "name:pol_x_preferred": [
      "Wake"
    ],
    "name:por_x_preferred": [
      "Ilha Wake"
    ],
    "name:rus_x_preferred": [
      "Атолл Уэйк"
    ],
    "name:slk_x_preferred": [
      "Wake"
    ],
    "name:spa_x_preferred": [
      "Isla Wake"
    ],
    "name:swe_x_preferred": [
      "Wake"
    ],
    "name:tha_x_preferred": [
      "เกาะเวก"
    ],
    "name:tur_x_preferred": [
      "Wake Adası"
    ],
    "name:und_x_variant": [
      "Disclerta"
    ],
    "name:zho_x_preferred": [
      "威克島"
    ],
    "ne:abbrev": "",
    "ne:adm0_a3": "UMI",
    "ne:adm0_label": "6",
    "ne:adm0_sr": "8",
    "ne:adm1_cod_1": "UMI-5179",
    "ne:adm1_code": "UMI-5179",
    "ne:admin": "United States Minor Outlying Islands",
    "ne:area_sqkm": "0.00000000000",
    "ne:check_me": "0",
    "ne:code_hasc": "UM.WQ",
    "ne:code_local": "",
    "ne:datarank": "11",
    "ne:diss_me": "5179",
    "ne:featurecla": "Admin-1 scale rank",
    "ne:fips": "WQ450",
    "ne:fips_alt": "",
    "ne:gadm_level": "0",
    "ne:geonunit": "Wake Atoll",
    "ne:gn_a1_code": "UM.450",
    "ne:gn_id": "4041685",
    "ne:gn_level": "1",
    "ne:gn_name": "Wake Island",
    "ne:gn_region": "",
    "ne:gns_adm1": "",
    "ne:gns_id": "0",
    "ne:gns_lang": "",
    "ne:gns_level": "0",
    "ne:gns_name": "",
    "ne:gns_region": "",
    "ne:gu_a3": "WQI",
    "ne:hasc_maybe": "",
    "ne:iso_3166_2": "UM-79",
    "ne:iso_a2": "UM",
    "ne:labelrank": "20",
    "ne:latitude": "19.28630000000",
    "ne:longitude": "166.64300000000",
    "ne:mapcolor13": 1,
    "ne:mapcolor9": 1,
    "ne:name": "Wake Atoll",
    "ne:name_alt": "",
    "ne:name_len": 10,
    "ne:name_local": "",
    "ne:note": "",
    "ne:postal": "",
    "ne:provnum_ne": "0",
    "ne:region": "",
    "ne:region_cod": "",
    "ne:region_sub": "",
    "ne:sameascity": "-99",
    "ne:scalerank": "11",
    "ne:sov_a3": "US1",
    "ne:sub_code": "",
    "ne:type": "",
    "ne:type_en": "",
    "ne:wikipedia": "",
    "ne:woe_id": 23424991,
    "ne:woe_label": "",
    "ne:woe_name": "Wake Atoll",
    "qs:a0": "United States Minor Outlying Islands",
    "qs:a0_lc": "UM",
    "qs:a1": "Wake Atoll",
    "qs:a1_lc": "UMI-5179",
    "qs:adm0": "United States Minor Outlying Islands",
    "qs:adm0_a3": "UMI",
    "qs:level": "adm1",
    "qs:scale": 4000000,
    "qs:source": "Natural Earth",
    "sfomuseum:placetype": "region",
    "src:geom": "quattroshapes",
    "src:geom_alt": [],
    "src:lbl_centroid": "mapshaper",
    "src:population": "uscensus",
    "src:population_date": "2000",
    "statoids:area_km": "6",
    "statoids:area_mi": "3",
    "statoids:as_of_date": "2010-01-01",
    "statoids:capital": "",
    "statoids:country": "UM",
    "statoids:gec": "WQ",
    "statoids:hasc": "UM.WQ",
    "statoids:iso": "79",
    "statoids:name": "Wake Island",
    "statoids:population": "150",
    "statoids:timezone": "+12",
    "statoids:type": "unincorporated territory",
    "statoids:tz": "+12",
    "uscensus:population": 1,
    "uscensus:population_year": 2000,
    "wof:belongsto": [
      102191575,
      85632333,
      136253057
    ],
    "wof:breaches": [],
    "wof:concordances": {
      "fips:code": "WQ",
      "gn:id": 4041685,
      "gp:id": 23424991,
      "hasc:id": "UM.WQ",
      "iso:code": "UM-79",
      "iso:id": "UM-79",
      "marc:id": "wk",
      "qs_pg:id": 1297247,
      "uscensus:geoid": "74450"
    },
    "wof:concordances_official": "iso:code",
    "wof:country": "UM",
    "wof:created": 1788539814,
    "wof:geomhash": "2e534308fb8d9267df25c004740f53dd",
    "wof:hierarchy": [
      {
        "continent_id": 102191575,
        "country_id": -1,
        "dependency_id": 85632333,
        "empire_id": 136253057,
        "region_id": 85680287
      }
    ],
    "wof:id": 85680287,
    "wof:lang_x_official": [
      "eng"
    ],
    "wof:lang_x_spoken": [
      "eng"
    ],
    "wof:lastmodified": 1788539814,
    "wof:name": "Wake Atoll",
    "wof:parent_id": 85632333,
    "wof:placetype": "region",
    "wof:placetype_local": "unincorporated territory",
    "wof:population": 1,
    "wof:population_rank": 1,
    "wof:repo": "sfomuseum-data-whosonfirst",
    "wof:shortcode": "WQ",
    "wof:superseded_by": [],
    "wof:supersedes": [],
    "wof:tags": []
  },
  "bbox": [
    166.61939537899366,
    19.27558014570718,
    166.65235436286366,
    19.3057315126992
  ],
  "geometry": {"coordinates":[[[166.61939537899366,19.28164297114625],[166.62973066493828,19.28241608323572],[166.638194207197,19.28644440298683],[166.64087975369773,19.29401276187951],[166.63477623843278,19.3057315126992],[166.648122592184,19.29775625194952],[166.65235436286366,19.28424713709575],[166.6442163419107,19.27558014570718],[166.61939537899366,19.28164297114625]]],"type":"Polygon"}
}
